{
   "Countries" : [
        {
        "dial_code": "+262",
        "code": "RE"
        },
        {
        "name": "Saint Barthelemy",
        "dial_code": "+590",
        "code": "BL"
        },
        {
        "name": "Saint Helena, Ascension and Tristan Da Cunha",
        "dial_code": "+290",
        "code": "SH"
        },
        {
        "name": "Saint Kitts and Nevis",
        "dial_code": "+1869",
        "code": "KN"
        },
        {
        "name": "Saint Lucia",
        "dial_code": "+1758",
        "code": "LC"
        },
        {
        "name": "Saint Martin",
        "dial_code": "+590",
        "code": "MF"
        },
        {
        "name": "Saint Pierre and Miquelon",
        "dial_code": "+508",
        "code": "PM"
        },
        {
        "name": "Saint Vincent and the Grenadines",
        "dial_code": "+1784",
        "code": "VC"
        },
        {
        "name": "Samoa",
        "dial_code": "+685",
        "code": "WS"
        },
        {
        "name": "San Marino",
        "dial_code": "+378",
        "code": "SM"
        },
        {
        "name": "Sao Tome and Principe",
        "dial_code": "+239",
        "code": "ST"
        },
        {
        "name": "Saudi Arabia",
        "dial_code": "+966",
        "code": "SA"
        },
        {
        "name": "Senegal",
        "dial_code": "+221",
        "code": "SN"
        },
        {
        "name": "Serbia",
        "dial_code": "+381",
        "code": "RS"
        },
        {
        "name": "Seychelles",
        "dial_code": "+248",
        "code": "SC"
        },
        {
        "name": "Sierra Leone",
        "dial_code": "+232",
        "code": "SL"
        },
        {
        "name": "Singapore",
        "dial_code": "+65",
        "code": "SG"
        },
        {
        "name": "Slovakia",
        "dial_code": "+421",
        "code": "SK"
        },
        {
        "name": "Slovenia",
        "dial_code": "+386",
        "code": "SI"
        },
        {
        "name": "Solomon Islands",
        "dial_code": "+677",
        "code": "SB"
        },
        {
        "name": "Somalia",
        "dial_code": "+252",
        "code": "SO"
        },
        {
        "name": "South Africa",
        "dial_code": "+27",
        "code": "ZA"
        },
        {
        "name": "South Sudan",
        "dial_code": "+211",
        "code": "SS"
        },
        {
        "name": "South Georgia and the South Sandwich Islands",
        "dial_code": "+500",
        "code": "GS"
        },
        {
        "name": "Spain",
        "dial_code": "+34",
        "code": "ES"
        },
        {
        "name": "Sri Lanka",
        "dial_code": "+94",
        "code": "LK"
        },
        {
        "name": "Sudan",
        "dial_code": "+249",
        "code": "SD"
        },
        {
        "name": "Suriname",
        "dial_code": "+597",
        "code": "SR"
        },
        {
        "name": "Svalbard and Jan Mayen",
        "dial_code": "+47",
        "code": "SJ"
        },
        {
        "name": "Swaziland",
        "dial_code": "+268",
        "code": "SZ"
        },
        {
        "name": "Sweden",
        "dial_code": "+46",
        "code": "SE"
        },
        {
        "name": "Switzerland",
        "dial_code": "+41",
        "code": "CH"
        },
        {
        "name": "Syrian Arab Republic",
        "dial_code": "+963",
        "code": "SY"
        },
        {
        "name": "Taiwan",
        "dial_code": "+886",
        "code": "TW"
        },
        {
        "name": "Tajikistan",
        "dial_code": "+992",
        "code": "TJ"
        },
        {
        "name": "Tanzania, United Republic of Tanzania",
        "dial_code": "+255",
        "code": "TZ"
        },
        {
        "name": "Thailand",
        "dial_code": "+66",
        "code": "TH"
        },
        {
        "name": "Timor-Leste",
        "dial_code": "+670",
        "code": "TL"
        },
        {
        "name": "Togo",
        "dial_code": "+228",
        "code": "TG"
        },
        {
        "name": "Tokelau",
        "dial_code": "+690",
        "code": "TK"
        },
        {
        "name": "Tonga",
        "dial_code": "+676",
        "code": "TO"
        },
        {
        "name": "Trinidad and Tobago",
        "dial_code": "+1868",
        "code": "TT"
        },
        {
        "name": "Tunisia",
        "dial_code": "+216",
        "code": "TN"
        },
        {
        "name": "Turkey",
        "dial_code": "+90",
        "code": "TR"
        },
        {
        "name": "Turkmenistan",
        "dial_code": "+993",
        "code": "TM"
        },
        {
        "name": "Turks and Caicos Islands",
        "dial_code": "+1649",
        "code": "TC"
        },
        {
        "name": "Tuvalu",
        "dial_code": "+688",
        "code": "TV"
        },
        {
        "name": "Uganda",
        "dial_code": "+256",
        "code": "UG"
        },
        {
        "name": "Ukraine",
        "dial_code": "+380",
        "code": "UA"
        },
        {
        "name": "United Arab Emirates",
        "dial_code": "+971",
        "code": "AE"
        },
        {
        "name": "United Kingdom",
        "dial_code": "+44",
        "code": "GB"
        },
        {
        "name": "United States",
        "dial_code": "+1",
        "code": "US"
        },
        {
        "name": "Uruguay",
        "dial_code": "+598",
        "code": "UY"
        },
        {
        "name": "Uzbekistan",
        "dial_code": "+998",
        "code": "UZ"
        },
        {
        "name": "Vanuatu",
        "dial_code": "+678",
        "code": "VU"
        },
        {
        "name": "Venezuela, Bolivarian Republic of Venezuela",
        "dial_code": "+58",
        "code": "VE"
        },
        {
        "name": "Vietnam",
        "dial_code": "+84",
        "code": "VN"
        },
        {
        "name": "Virgin Islands, British",
        "dial_code": "+1284",
        "code": "VG"
        },
        {
        "name": "Virgin Islands, U.S.",
        "dial_code": "+1340",
        "code": "VI"
        },
        {
        "name": "Wallis and Futuna",
        "dial_code": "+681",
        "code": "WF"
        },
        {
        "name": "Yemen",
        "dial_code": "+967",
        "code": "YE"
        },
        {
        "name": "Zambia",
        "dial_code": "+260",
        "code": "ZM"
        },
        {
        "name": "Zimbabwe",
        "dial_code": "+263",
        "code": "ZW"
        }
    ]
}